{
  "type": "FeatureCollection",
  "features": [
    {
      "type": "Feature",
      "properties": {
        "norad_id": 66389,
        "name": "STARLINK-35694",
        "group": "last-30-days",
        "lat": 40.50028467839976,
        "lon": 74.08042455570262,
        "alt_km": 440.92889188419394,
        "timestamp": "2025-12-06T11:28:09.784092+00:00",
        "meta_object_name": "STARLINK-35694",
        "meta_object_id": "2025-257K",
        "meta_epoch": "2025-12-05T22:00:03.000096",
        "meta_mean_motion": 15.39577996,
        "meta_eccentricity": 0.00015103,
        "meta_inclination": 53.1602,
        "meta_ra_of_asc_node": 296.5411,
        "meta_arg_of_pericenter": 98.8322,
        "meta_mean_anomaly": 154.6446,
        "meta_ephemeris_type": 0,
        "meta_classification_type": "U",
        "meta_norad_cat_id": 66389,
        "meta_element_set_no": 999,
        "meta_rev_at_epoch": 540,
        "meta_bstar": 0.001360003,
        "meta_mean_motion_dot": 0.00054313,
        "meta_mean_motion_ddot": 0,
        "tle_line1": "1 66389U 25257K   25339.91670139  .00054313  00000+0  13600-2 0  9998",
        "tle_line2": "2 66389  53.1602 296.5411 0001510  98.8322 154.6446 15.39577996  5408"
      },
      "geometry": {
        "type": "Point",
        "coordinates": [
          74.08042455570262,
          40.50028467839976
        ]
      }
    },
    {
      "type": "Feature",
      "properties": {
        "norad_id": 66390,
        "name": "STARLINK-35665",
        "group": "last-30-days",
        "lat": -38.20301772329878,
        "lon": 149.8456770651479,
        "alt_km": 422.88926165810426,
        "timestamp": "2025-12-06T11:28:09.784102+00:00",
        "meta_object_name": "STARLINK-35665",
        "meta_object_id": "2025-257L",
        "meta_epoch": "2025-12-05T22:05:38.821344",
        "meta_mean_motion": 15.49362043,
        "meta_eccentricity": 0.0001551,
        "meta_inclination": 53.1588,
        "meta_ra_of_asc_node": 296.3504,
        "meta_arg_of_pericenter": 107.4357,
        "meta_mean_anomaly": 252.6822,
        "meta_ephemeris_type": 0,
        "meta_classification_type": "U",
        "meta_norad_cat_id": 66390,
        "meta_element_set_no": 999,
        "meta_rev_at_epoch": 542,
        "meta_bstar": 0.0029119663,
        "meta_mean_motion_dot": 0.00165283,
        "meta_mean_motion_ddot": 0,
        "tle_line1": "1 66390U 25257L   25339.92058821  .00165283  00000+0  29120-2 0  9992",
        "tle_line2": "2 66390  53.1588 296.3504 0001551 107.4357 252.6822 15.49362043  5429"
      },
      "geometry": {
        "type": "Point",
        "coordinates": [
          149.8456770651479,
          -38.20301772329878
        ]
      }
    },
    {
      "type": "Feature",
      "properties": {
        "norad_id": 66391,
        "name": "STARLINK-35656",
        "group": "last-30-days",
        "lat": 37.47245815025942,
        "lon": 78.79443751529323,
        "alt_km": 436.6596222840326,
        "timestamp": "2025-12-06T11:28:09.784113+00:00",
        "meta_object_name": "STARLINK-35656",
        "meta_object_id": "2025-257M",
        "meta_epoch": "2025-12-05T03:46:18.556608",
        "meta_mean_motion": 15.40317588,
        "meta_eccentricity": 9.833e-05,
        "meta_inclination": 53.1603,
        "meta_ra_of_asc_node": 300.1096,
        "meta_arg_of_pericenter": 171.4639,
        "meta_mean_anomaly": 188.6383,
        "meta_ephemeris_type": 0,
        "meta_classification_type": "U",
        "meta_norad_cat_id": 66391,
        "meta_element_set_no": 999,
        "meta_rev_at_epoch": 530,
        "meta_bstar": 0.0098522303,
        "meta_mean_motion_dot": 0.00426205,
        "meta_mean_motion_ddot": 0,
        "tle_line1": "1 66391U 25257M   25339.15715922  .00426205  00000+0  98522-2 0  9996",
        "tle_line2": "2 66391  53.1603 300.1096 0000983 171.4639 188.6383 15.40317588  5302"
      },
      "geometry": {
        "type": "Point",
        "coordinates": [
          78.79443751529323,
          37.47245815025942
        ]
      }
    },
    {
      "type": "Feature",
      "properties": {
        "norad_id": 66392,
        "name": "STARLINK-35671",
        "group": "last-30-days",
        "lat": 52.01589990348489,
        "lon": 40.18496149853722,
        "alt_km": 438.7217469381794,
        "timestamp": "2025-12-06T11:28:09.784123+00:00",
        "meta_object_name": "STARLINK-35671",
        "meta_object_id": "2025-257N",
        "meta_epoch": "2025-12-05T22:00:03.000096",
        "meta_mean_motion": 15.3958122,
        "meta_eccentricity": 0.00022044,
        "meta_inclination": 53.1609,
        "meta_ra_of_asc_node": 296.5924,
        "meta_arg_of_pericenter": 113.9473,
        "meta_mean_anomaly": 113.7464,
        "meta_ephemeris_type": 0,
        "meta_classification_type": "U",
        "meta_norad_cat_id": 66392,
        "meta_element_set_no": 999,
        "meta_rev_at_epoch": 540,
        "meta_bstar": 0.0013949805,
        "meta_mean_motion_dot": 0.00055738,
        "meta_mean_motion_ddot": 0,
        "tle_line1": "1 66392U 25257N   25339.91670139  .00055738  00000+0  13950-2 0  9992",
        "tle_line2": "2 66392  53.1609 296.5924 0002204 113.9473 113.7464 15.39581220  5406"
      },
      "geometry": {
        "type": "Point",
        "coordinates": [
          40.18496149853722,
          52.01589990348489
        ]
      }
    },
    {
      "type": "Feature",
      "properties": {
        "norad_id": 66393,
        "name": "STARLINK-35652",
        "group": "last-30-days",
        "lat": 23.957445254146318,
        "lon": 94.38969615267122,
        "alt_km": 445.6227871959545,
        "timestamp": "2025-12-06T11:28:09.784133+00:00",
        "meta_object_name": "STARLINK-35652",
        "meta_object_id": "2025-257P",
        "meta_epoch": "2025-12-05T22:00:03.000096",
        "meta_mean_motion": 15.40541168,
        "meta_eccentricity": 0.00019099,
        "meta_inclination": 53.1596,
        "meta_ra_of_asc_node": 296.4943,
        "meta_arg_of_pericenter": 100.4718,
        "meta_mean_anomaly": 176.4311,
        "meta_ephemeris_type": 0,
        "meta_classification_type": "U",
        "meta_norad_cat_id": 66393,
        "meta_element_set_no": 999,
        "meta_rev_at_epoch": 540,
        "meta_bstar": -0.034505419,
        "meta_mean_motion_dot": -0.01284768,
        "meta_mean_motion_ddot": 0,
        "tle_line1": "1 66393U 25257P   25339.91670139 -.01284768  00000+0 -34505-1 0  9991",
        "tle_line2": "2 66393  53.1596 296.4943 0001909 100.4718 176.4311 15.40541168  5402"
      },
      "geometry": {
        "type": "Point",
        "coordinates": [
          94.38969615267122,
          23.957445254146318
        ]
      }
    },
    {
      "type": "Feature",
      "properties": {
        "norad_id": 66394,
        "name": "STARLINK-35672",
        "group": "last-30-days",
        "lat": 22.53377475371778,
        "lon": 95.72036429063607,
        "alt_km": 445.66048692054756,
        "timestamp": "2025-12-06T11:28:09.784146+00:00",
        "meta_object_name": "STARLINK-35672",
        "meta_object_id": "2025-257Q",
        "meta_epoch": "2025-12-05T22:00:03.000096",
        "meta_mean_motion": 15.40049253,
        "meta_eccentricity": 0.00018267,
        "meta_inclination": 53.1596,
        "meta_ra_of_asc_node": 296.4889,
        "meta_arg_of_pericenter": 74.712,
        "meta_mean_anomaly": 204.3146,
        "meta_ephemeris_type": 0,
        "meta_classification_type": "U",
        "meta_norad_cat_id": 66394,
        "meta_element_set_no": 999,
        "meta_rev_at_epoch": 540,
        "meta_bstar": -0.018433382,
        "meta_mean_motion_dot": -0.00693295,
        "meta_mean_motion_ddot": 0,
        "tle_line1": "1 66394U 25257Q   25339.91670139 -.00693295  00000+0 -18433-1 0  9992",
        "tle_line2": "2 66394  53.1596 296.4889 0001826  74.7120 204.3146 15.40049253  5405"
      },
      "geometry": {
        "type": "Point",
        "coordinates": [
          95.72036429063607,
          22.53377475371778
        ]
      }
    },
    {
      "type": "Feature",
      "properties": {
        "norad_id": 66395,
        "name": "STARLINK-35681",
        "group": "last-30-days",
        "lat": 4.0571605312175905,
        "lon": 110.74971621986263,
        "alt_km": 443.6090817690083,
        "timestamp": "2025-12-06T11:28:09.784160+00:00",
        "meta_object_name": "STARLINK-35681",
        "meta_object_id": "2025-257R",
        "meta_epoch": "2025-12-05T22:00:03.000096",
        "meta_mean_motion": 15.43378575,
        "meta_eccentricity": 0.00013967,
        "meta_inclination": 53.1594,
        "meta_ra_of_asc_node": 296.453,
        "meta_arg_of_pericenter": 110.4518,
        "meta_mean_anomaly": 187.079,
        "meta_ephemeris_type": 0,
        "meta_classification_type": "U",
        "meta_norad_cat_id": 66395,
        "meta_element_set_no": 999,
        "meta_rev_at_epoch": 523,
        "meta_bstar": -0.050903191,
        "meta_mean_motion_dot": -0.02051258,
        "meta_mean_motion_ddot": 0,
        "tle_line1": "1 66395U 25257R   25339.91670139 -.02051258  00000+0 -50903-1 0  9990",
        "tle_line2": "2 66395  53.1594 296.4530 0001396 110.4518 187.0790 15.43378575  5236"
      },
      "geometry": {
        "type": "Point",
        "coordinates": [
          110.74971621986263,
          4.0571605312175905
        ]
      }
    }
  ]
}